STARLINK-36606          
1 67845U 26033AA  26075.83335647 -.01873696  00000+0 -24803-1 0  9992
2 67845  42.9997 227.9865 0001447 279.2774  12.0819 15.60682747  5816
STARLINK-36658          
1 67846U 26033AB  26075.83335647 -.01846807  00000+0 -30953-1 0  9990
2 67846  43.0001 228.3024 0001377 285.8163 238.1931 15.54416736  5816
STARLINK-36618          
1 67847U 26033AC  26075.30146510  .00676165  18906-3  20373-2 0  9991
2 67847  42.9766 227.9449 0005353 222.7984 137.2475 15.91370707  5706
STARLINK-36660          
1 67848U 26033AD  26075.83335647 -.01713583  00000+0 -30054-1 0  9998
2 67848  43.0003 228.3793 0001647 285.4475 207.5754 15.52927815  5811
STARLINK-36602          
1 67849U 26033AE  26075.83335647 -.01826744  00000+0 -31566-1 0  9992
2 67849  42.9995 228.3315 0001340 294.4338 217.1226 15.53552043  5817
STARLINK-36840          
1 67850U 26034A   26075.68577355  .00312444  00000+0  15257-2 0  9996
2 67850  53.1589 176.2966 0001052  83.6239 276.4903 15.80932528  5048
STARLINK-36348          
1 67851U 26034B   26075.55858501  .00342128  00000+0  16656-2 0  9994
2 67851  53.1586 176.9239 0000777  37.8686 322.2392 15.80918208  5025
STARLINK-36276          
1 67852U 26034C   26075.68427428  .00236184  00000+0  11636-2 0  9996
2 67852  53.1585 176.2862 0001659  49.9155 310.2013 15.80948845  5044
STARLINK-36785          
1 67853U 26034D   26075.68352458  .00134294  00000+0  67214-3 0  9990
2 67853  53.1583 176.2808 0001778  45.1724 314.9443 15.80913242  5046
STARLINK-36608          
1 67854U 26034E   26075.68276778  .00231386  00000+0  11373-2 0  9995
2 67854  53.1586 176.2757 0002221 328.7028  31.3862 15.81012811  5031
STARLINK-36838          
1 67855U 26034F   26074.98662118  .00378867  00000+0  18281-2 0  9996
2 67855  53.1587 179.7547 0002728  86.2720 273.8615 15.81014915  4939
STARLINK-36843          
1 67856U 26034G   26075.68051879  .00379092  00000+0  18097-2 0  9997
2 67856  53.1586 176.2606 0001285 207.1184 152.9772 15.81246903  5040
STARLINK-36828          
1 67857U 26034H   26074.98587807  .00468976  00000+0  22368-2 0  9991
2 67857  53.1587 179.7497 0004389  74.2599 285.8908 15.81026910  4937
STARLINK-36837          
1 67858U 26034J   26074.66826971  .00335977  00000+0  16367-2 0  9991
2 67858  53.1585 181.3235 0001512 100.5287 259.5906 15.80922260  4889
STARLINK-36393          
1 67859U 26034K   26074.66752109  .00266305  00000+0  13071-2 0  9990
2 67859  53.1583 181.3188 0002384  28.3646 331.7506 15.80947251  4885
STARLINK-35873          
1 67860U 26034L   26075.67827563  .00297336  00000+0  14615-2 0  9994
2 67860  53.1586 176.2436 0001890  93.3783 266.7456 15.80831309  5073
