[{"OBJECT_NAME":"STARLINK-36606","OBJECT_ID":"2026-033AA","EPOCH":"2026-03-16T20:00:01.999008","MEAN_MOTION":15.60682747,"ECCENTRICITY":0.0001447,"INCLINATION":42.9997,"RA_OF_ASC_NODE":227.9865,"ARG_OF_PERICENTER":279.2774,"MEAN_ANOMALY":12.0819,"EPHEMERIS_TYPE":0,"CLASSIFICATION_TYPE":"U","NORAD_CAT_ID":67845,"ELEMENT_SET_NO":999,"REV_AT_EPOCH":581,"BSTAR":-0.024803,"MEAN_MOTION_DOT":-0.01873696,"MEAN_MOTION_DDOT":0},{"OBJECT_NAME":"STARLINK-36658","OBJECT_ID":"2026-033AB","EPOCH":"2026-03-16T20:00:01.999008","MEAN_MOTION":15.54416736,"ECCENTRICITY":0.0001377,"INCLINATION":43.0001,"RA_OF_ASC_NODE":228.3024,"ARG_OF_PERICENTER":285.8163,"MEAN_ANOMALY":238.1931,"EPHEMERIS_TYPE":0,"CLASSIFICATION_TYPE":"U","NORAD_CAT_ID":67846,"ELEMENT_SET_NO":999,"REV_AT_EPOCH":581,"BSTAR":-0.030953,"MEAN_MOTION_DOT":-0.01846807,"MEAN_MOTION_DDOT":0},{"OBJECT_NAME":"STARLINK-36618","OBJECT_ID":"2026-033AC","EPOCH":"2026-03-16T07:14:06.584640","MEAN_MOTION":15.91370707,"ECCENTRICITY":0.00053534,"INCLINATION":42.9766,"RA_OF_ASC_NODE":227.9449,"ARG_OF_PERICENTER":222.7984,"MEAN_ANOMALY":137.2475,"EPHEMERIS_TYPE":0,"CLASSIFICATION_TYPE":"U","NORAD_CAT_ID":67847,"ELEMENT_SET_NO":999,"REV_AT_EPOCH":570,"BSTAR":0.0020373111,"MEAN_MOTION_DOT":0.00676165,"MEAN_MOTION_DDOT":0.00018905677},{"OBJECT_NAME":"STARLINK-36660","OBJECT_ID":"2026-033AD","EPOCH":"2026-03-16T20:00:01.999008","MEAN_MOTION":15.52927815,"ECCENTRICITY":0.0001647,"INCLINATION":43.0003,"RA_OF_ASC_NODE":228.3793,"ARG_OF_PERICENTER":285.4475,"MEAN_ANOMALY":207.5754,"EPHEMERIS_TYPE":0,"CLASSIFICATION_TYPE":"U","NORAD_CAT_ID":67848,"ELEMENT_SET_NO":999,"REV_AT_EPOCH":581,"BSTAR":-0.030054,"MEAN_MOTION_DOT":-0.01713583,"MEAN_MOTION_DDOT":0},{"OBJECT_NAME":"STARLINK-36602","OBJECT_ID":"2026-033AE","EPOCH":"2026-03-16T20:00:01.999008","MEAN_MOTION":15.53552043,"ECCENTRICITY":0.000134,"INCLINATION":42.9995,"RA_OF_ASC_NODE":228.3315,"ARG_OF_PERICENTER":294.4338,"MEAN_ANOMALY":217.1226,"EPHEMERIS_TYPE":0,"CLASSIFICATION_TYPE":"U","NORAD_CAT_ID":67849,"ELEMENT_SET_NO":999,"REV_AT_EPOCH":581,"BSTAR":-0.031566,"MEAN_MOTION_DOT":-0.01826744,"MEAN_MOTION_DDOT":0},{"OBJECT_NAME":"STARLINK-36840","OBJECT_ID":"2026-034A","EPOCH":"2026-03-16T16:27:30.834720","MEAN_MOTION":15.80932528,"ECCENTRICITY":0.0001052,"INCLINATION":53.1589,"RA_OF_ASC_NODE":176.2966,"ARG_OF_PERICENTER":83.6239,"MEAN_ANOMALY":276.4903,"EPHEMERIS_TYPE":0,"CLASSIFICATION_TYPE":"U","NORAD_CAT_ID":67850,"ELEMENT_SET_NO":999,"REV_AT_EPOCH":504,"BSTAR":0.0015257,"MEAN_MOTION_DOT":0.00312444,"MEAN_MOTION_DDOT":0},{"OBJECT_NAME":"STARLINK-36348","OBJECT_ID":"2026-034B","EPOCH":"2026-03-16T13:24:21.744864","MEAN_MOTION":15.80918208,"ECCENTRICITY":7.77e-5,"INCLINATION":53.1586,"RA_OF_ASC_NODE":176.9239,"ARG_OF_PERICENTER":37.8686,"MEAN_ANOMALY":322.2392,"EPHEMERIS_TYPE":0,"CLASSIFICATION_TYPE":"U","NORAD_CAT_ID":67851,"ELEMENT_SET_NO":999,"REV_AT_EPOCH":502,"BSTAR":0.0016656,"MEAN_MOTION_DOT":0.00342128,"MEAN_MOTION_DDOT":0},{"OBJECT_NAME":"STARLINK-36276","OBJECT_ID":"2026-034C","EPOCH":"2026-03-16T16:25:21.297792","MEAN_MOTION":15.80948845,"ECCENTRICITY":0.0001659,"INCLINATION":53.1585,"RA_OF_ASC_NODE":176.2862,"ARG_OF_PERICENTER":49.9155,"MEAN_ANOMALY":310.2013,"EPHEMERIS_TYPE":0,"CLASSIFICATION_TYPE":"U","NORAD_CAT_ID":67852,"ELEMENT_SET_NO":999,"REV_AT_EPOCH":504,"BSTAR":0.0011636,"MEAN_MOTION_DOT":0.00236184,"MEAN_MOTION_DDOT":0},{"OBJECT_NAME":"STARLINK-36785","OBJECT_ID":"2026-034D","EPOCH":"2026-03-16T16:24:16.523712","MEAN_MOTION":15.80913242,"ECCENTRICITY":0.0001778,"INCLINATION":53.1583,"RA_OF_ASC_NODE":176.2808,"ARG_OF_PERICENTER":45.1724,"MEAN_ANOMALY":314.9443,"EPHEMERIS_TYPE":0,"CLASSIFICATION_TYPE":"U","NORAD_CAT_ID":67853,"ELEMENT_SET_NO":999,"REV_AT_EPOCH":504,"BSTAR":0.00067214,"MEAN_MOTION_DOT":0.00134294,"MEAN_MOTION_DDOT":0},{"OBJECT_NAME":"STARLINK-36608","OBJECT_ID":"2026-034E","EPOCH":"2026-03-16T16:23:11.136192","MEAN_MOTION":15.81012811,"ECCENTRICITY":0.0002221,"INCLINATION":53.1586,"RA_OF_ASC_NODE":176.2757,"ARG_OF_PERICENTER":328.7028,"MEAN_ANOMALY":31.3862,"EPHEMERIS_TYPE":0,"CLASSIFICATION_TYPE":"U","NORAD_CAT_ID":67854,"ELEMENT_SET_NO":999,"REV_AT_EPOCH":503,"BSTAR":0.0011373,"MEAN_MOTION_DOT":0.00231386,"MEAN_MOTION_DDOT":0},{"OBJECT_NAME":"STARLINK-36838","OBJECT_ID":"2026-034F","EPOCH":"2026-03-15T23:40:44.069952","MEAN_MOTION":15.81014915,"ECCENTRICITY":0.00027282,"INCLINATION":53.1587,"RA_OF_ASC_NODE":179.7547,"ARG_OF_PERICENTER":86.272,"MEAN_ANOMALY":273.8615,"EPHEMERIS_TYPE":0,"CLASSIFICATION_TYPE":"U","NORAD_CAT_ID":67855,"ELEMENT_SET_NO":999,"REV_AT_EPOCH":493,"BSTAR":0.0018281122,"MEAN_MOTION_DOT":0.00378867,"MEAN_MOTION_DDOT":0},{"OBJECT_NAME":"STARLINK-36843","OBJECT_ID":"2026-034G","EPOCH":"2026-03-16T16:19:56.823456","MEAN_MOTION":15.81246903,"ECCENTRICITY":0.0001285,"INCLINATION":53.1586,"RA_OF_ASC_NODE":176.2606,"ARG_OF_PERICENTER":207.1184,"MEAN_ANOMALY":152.9772,"EPHEMERIS_TYPE":0,"CLASSIFICATION_TYPE":"U","NORAD_CAT_ID":67856,"ELEMENT_SET_NO":999,"REV_AT_EPOCH":504,"BSTAR":0.0018097,"MEAN_MOTION_DOT":0.00379092,"MEAN_MOTION_DDOT":0},{"OBJECT_NAME":"STARLINK-36828","OBJECT_ID":"2026-034H","EPOCH":"2026-03-15T23:39:39.865248","MEAN_MOTION":15.8102691,"ECCENTRICITY":0.0004389,"INCLINATION":53.1587,"RA_OF_ASC_NODE":179.7497,"ARG_OF_PERICENTER":74.2599,"MEAN_ANOMALY":285.8908,"EPHEMERIS_TYPE":0,"CLASSIFICATION_TYPE":"U","NORAD_CAT_ID":67857,"ELEMENT_SET_NO":999,"REV_AT_EPOCH":493,"BSTAR":0.0022368422,"MEAN_MOTION_DOT":0.00468976,"MEAN_MOTION_DDOT":0},{"OBJECT_NAME":"STARLINK-36837","OBJECT_ID":"2026-034J","EPOCH":"2026-03-15T16:02:18.502944","MEAN_MOTION":15.8092226,"ECCENTRICITY":0.00015122,"INCLINATION":53.1585,"RA_OF_ASC_NODE":181.3235,"ARG_OF_PERICENTER":100.5287,"MEAN_ANOMALY":259.5906,"EPHEMERIS_TYPE":0,"CLASSIFICATION_TYPE":"U","NORAD_CAT_ID":67858,"ELEMENT_SET_NO":999,"REV_AT_EPOCH":488,"BSTAR":0.0016366876,"MEAN_MOTION_DOT":0.00335977,"MEAN_MOTION_DDOT":0},{"OBJECT_NAME":"STARLINK-36393","OBJECT_ID":"2026-034K","EPOCH":"2026-03-15T16:01:13.822176","MEAN_MOTION":15.80947251,"ECCENTRICITY":0.00023846,"INCLINATION":53.1583,"RA_OF_ASC_NODE":181.3188,"ARG_OF_PERICENTER":28.3646,"MEAN_ANOMALY":331.7506,"EPHEMERIS_TYPE":0,"CLASSIFICATION_TYPE":"U","NORAD_CAT_ID":67859,"ELEMENT_SET_NO":999,"REV_AT_EPOCH":488,"BSTAR":0.0013070701,"MEAN_MOTION_DOT":0.00266305,"MEAN_MOTION_DDOT":0},{"OBJECT_NAME":"STARLINK-35873","OBJECT_ID":"2026-034L","EPOCH":"2026-03-16T16:16:43.014432","MEAN_MOTION":15.80831309,"ECCENTRICITY":0.000189,"INCLINATION":53.1586,"RA_OF_ASC_NODE":176.2436,"ARG_OF_PERICENTER":93.3783,"MEAN_ANOMALY":266.7456,"EPHEMERIS_TYPE":0,"CLASSIFICATION_TYPE":"U","NORAD_CAT_ID":67860,"ELEMENT_SET_NO":999,"REV_AT_EPOCH":507,"BSTAR":0.0014615,"MEAN_MOTION_DOT":0.00297336,"MEAN_MOTION_DDOT":0}]
